[{"OBJECT_NAME":"STARLINK-5324","OBJECT_ID":"2023-021BB","EPOCH":"2026-03-09T12:32:12.843168","MEAN_MOTION":14.9832728,"ECCENTRICITY":0.00033628,"INCLINATION":70.0007,"RA_OF_ASC_NODE":144.8377,"ARG_OF_PERICENTER":269.4702,"MEAN_ANOMALY":90.6072,"EPHEMERIS_TYPE":0,"CLASSIFICATION_TYPE":"U","NORAD_CAT_ID":55677,"ELEMENT_SET_NO":999,"REV_AT_EPOCH":16975,"BSTAR":-4.7771848e-5,"MEAN_MOTION_DOT":-6.63e-6,"MEAN_MOTION_DDOT":0},{"OBJECT_NAME":"SL-8 DEB","OBJECT_ID":"1972-043D","EPOCH":"2026-03-09T22:05:55.512096","MEAN_MOTION":15.0117212,"ECCENTRICITY":0.00057803,"INCLINATION":74.0604,"RA_OF_ASC_NODE":30.4168,"ARG_OF_PERICENTER":131.677,"MEAN_ANOMALY":228.4914,"EPHEMERIS_TYPE":0,"CLASSIFICATION_TYPE":"U","NORAD_CAT_ID":6065,"ELEMENT_SET_NO":999,"REV_AT_EPOCH":84295,"BSTAR":0.0010977341,"MEAN_MOTION_DOT":0.00014073,"MEAN_MOTION_DDOT":0}]
